0 SL-14 R/B
1 15370U 84111B   13281.28625716  .00000215  00000-0  23559-4 0  6367
2 15370 082.5194 190.5122 0021879 173.2634 313.4711 14.82807067564367
0 SL-14 R/B
1 15370U 84111B   13282.36765073  .00000243  00000-0  27016-4 0  6372
2 15370 082.5193 189.5002 0021963 169.8663 325.8966 14.82809124564521
0 SL-14 R/B
1 15370U 84111B   13283.70320812  .00000259  00000-0  28902-4 0  6382
2 15370 082.5193 188.2504 0022073 165.6073 255.1100 14.82809342564725
0 SL-14 R/B
1 15370U 84111B   13286.14207368  .00000265  00000-0  29708-4 0  6408
2 15370 082.5193 185.9680 0022253 157.9149 313.7119 14.82810486565084
0 SL-14 R/B
1 15370U 84111B   13287.15416230  .00000324  00000-0  36935-4 0  6417
2 15370 082.5191 185.0210 0022331 154.7661 316.1758 14.82810628565234
0 SL-14 R/B
1 15370U 84111B   13288.17425887  .00000448  00000-0  52273-4 0  6429
2 15370 082.5189 184.0664 0022394 151.5383 001.4397 14.82811967565384
0 SL-14 R/B
1 15370U 84111B   13289.17627670  .00000343  00000-0  39317-4 0  6433
2 15370 082.5186 183.1287 0022467 148.4316 310.1385 14.82813049565531
0 SL-14 R/B
1 15370U 84111B   13290.39367947  .00000356  00000-0  40818-4 0  6440
2 15370 082.5183 181.9895 0022537 144.6429 328.5674 14.82814013565716
0 SL-14 R/B
1 15370U 84111B   13292.15697170  .00000366  00000-0  42136-4 0  6457
2 15370 082.5179 180.3394 0022668 139.1229 020.9643 14.82814825565978
0 SL-14 R/B
1 15370U 84111B   13293.16926275  .00000351  00000-0  40288-4 0  6461
2 15370 082.5178 179.3920 0022697 136.0185 024.4777 14.82815743566124
0 SL-14 R/B
1 15370U 84111B   13294.17276062  .00000329  00000-0  37497-4 0  6479
2 15370 082.5177 178.4529 0022715 132.9231 341.0755 14.82816788566276
0 SL-14 R/B
1 15370U 84111B   13295.18507793  .00000382  00000-0  44108-4 0  6486
2 15370 082.5177 177.5055 0022749 129.7976 344.7591 14.82817238566423
